STARLINK-6040           
1 56809U 23078AU  26068.88769186 -.00000613  00000+0 -43576-4 0  9993
2 56809  70.0010 343.8081 0002532 263.0396  97.0475 14.98329487152719
CENTAURI-8              
1 62714U 25009DK  26068.72637183  .00004445  00000+0  38891-3 0  9993
2 62714  97.7096 150.1876 0003020 109.5881 250.5667 14.97228330 62597
